STARLINK-30771          
1 58169U 23166V   26140.03282569  .00001240  00000+0  54001-4 0  9995
2 58169  53.1606 248.1354 0001044  80.3581 279.7538 15.30196028144109
STARLINK-30764          
1 58170U 23166W   26140.02966280  .00002456  00000+0  95031-4 0  9993
2 58170  53.1639 248.1154 0001364  91.1837 268.9320 15.30192645144104
STARLINK-30752          
1 58171U 23166X   26139.56929288  .00000873  00000+0  41607-4 0  9999
2 58171  53.1608 250.2089 0001523  90.2684 269.8491 15.30186383144032
COSMOS 2571             
1 58172U 23165C   26140.17100649 -.00000059  00000+0  11363-4 0  9993
2 58172  67.1520 355.5357 0015778 330.9578  29.0628 13.97332391130442
STARLINK-30753          
1 58175U 23167A   26140.28603268  .00001394  00000+0  60187-4 0  9995
2 58175  43.0033  99.1740 0001393 274.5256  85.5437 15.27577758141932
STARLINK-30824          
1 58176U 23167B   26140.22449787  .00001604  00000+0  67800-4 0  9997
2 58176  43.0031  99.5697 0001520 271.2776  88.7901 15.27580476141920
STARLINK-30791          
1 58177U 23167C   26140.19494434  .00001273  00000+0  55769-4 0  9996
2 58177  43.0039  99.3369 0000979 266.9568  93.1171 15.27577450141927
STARLINK-30810          
1 58178U 23167D   26140.18209747  .00002903  00000+0  11493-3 0  9993
2 58178  43.0024  99.2508 0001127 286.5525  73.5203 15.27595645141927
STARLINK-30819          
1 58179U 23167E   26140.21421445  .00000908  00000+0  42526-4 0  9994
2 58179  43.0041  99.4844 0001664 268.0344  92.0317 15.27582279141923
STARLINK-30806          
1 58180U 23167F   26140.18957857  .00037032  00000+0  12645-2 0  9998
2 58180  42.9985  99.2902 0000893 181.3225 178.7625 15.29680225141927
STARLINK-30821          
1 58181U 23167G   26140.26804253  .00001230  00000+0  54217-4 0  9993
2 58181  43.0044  99.0252 0000911 270.3433  89.7314 15.27576224141920
STARLINK-30778          
1 58182U 23167H   26140.20522221  .00000881  00000+0  41557-4 0  9994
2 58182  43.0042  99.4123 0001283 276.2947  83.7758 15.27577220141921
STARLINK-30809          
1 58183U 23167J   26140.23991747  .00000790  00000+0  38232-4 0  9996
2 58183  43.0026  99.6744 0001303 262.2041  97.8663 15.27577587141925
STARLINK-30801          
1 58184U 23167K   26140.17838549  .00000212  00000+0  17227-4 0  9990
2 58184  43.0038 100.0702 0001201 267.3517  92.7198 15.27579896141912
STARLINK-30793          
1 58185U 23167L   26139.62445742  .00000630  00000+0  32449-4 0  9995
2 58185  43.0055 102.7893 0002181 266.3236  93.7366 15.27572617141830
STARLINK-30755          
1 58186U 23167M   26140.25904655  .00001346  00000+0  58437-4 0  9990
2 58186  43.0028  98.9616 0001078 273.5648  86.5080 15.27574836141930
STARLINK-30760          
1 58187U 23167N   26140.28218399  .00002813  00000+0  11169-3 0  9997
2 58187  43.0058  99.1263 0001511 299.9501  60.1201 15.27584636141939
STARLINK-30826          
1 58188U 23167P   26139.95010131  .00002148  00000+0  87550-4 0  9993
2 58188  43.0036 100.9376 0001457 267.9141  92.1543 15.27578182141883
STARLINK-30796          
1 58189U 23167Q   26140.18980545  .00000791  00000+0  38263-4 0  9995
2 58189  43.0030  99.2976 0000984 261.6973  98.3768 15.27579308141925
STARLINK-30820          
1 58190U 23167R   26140.25130924  .00003500  00000+0  13660-3 0  9997
2 58190  43.0029  98.8982 0000801 277.1674  82.9086 15.27595529141931
STARLINK-30785          
1 58191U 23167S   26140.22321828  .00001658  00000+0  69718-4 0  9998
2 58191  43.0031  99.5466 0001219 268.0074  92.0638 15.27592394141928
STARLINK-30807          
1 58192U 23167T   26140.21550243  .00006110  00000+0  23131-3 0  9999
2 58192  43.0032  99.4900 0001632 272.5970  87.4695 15.27586747141922
STARLINK-30822          
1 58193U 23167U   26140.16810442  .00001105  00000+0  49667-4 0  9996
2 58193  43.0027  99.9917 0001163 271.3048  88.7671 15.27579317141914
STARLINK-30830          
1 58194U 23167V   26140.25259241  .00002950  00000+0  11662-3 0  9993
2 58194  43.0052  98.8884 0001454 267.6836  92.3850 15.27594046141938
STARLINK-30827          
1 58195U 23167W   26140.24876165 -.00003411  00000+0 -11446-3 0  9998
2 58195  43.0027  98.8817 0001675 263.3594  96.7067 15.27580106141936
STARLINK-30798          
1 58196U 23167X   26140.29245401  .00000971  00000+0  44812-4 0  9997
2 58196  43.0024  99.2058 0001293 263.3002  96.7702 15.27579796141935
STARLINK-30762          
1 58197U 23167Y   26140.17197707  .00002383  00000+0  96094-4 0  9998
2 58197  43.0018 100.0177 0001360 254.7345 105.3357 15.27575881141913
TIANHUI 5A              
1 58199U 23168A   26139.48911773  .00000211  00000+0  29153-4 0  9990
2 58199  97.8205 147.2693 0001609  93.6025 266.5376 14.87581613138335
TIANHUI 5B              
1 58201U 23168C   26139.48911917  .00000199  00000+0  27902-4 0  9999
2 58201  97.8209 147.2738 0002029  95.3774 264.7674 14.87581354138333
TJS-10                  
1 58204U 23169A   26139.68626324 -.00000252  00000+0  00000+0 0  9996
2 58204   2.4727  80.8091 0003415 106.9569  29.0794  1.00273703  9258
