OBJECT_NAME,OBJECT_ID,EPOCH,MEAN_MOTION,ECCENTRICITY,INCLINATION,RA_OF_ASC_NODE,ARG_OF_PERICENTER,MEAN_ANOMALY,EPHEMERIS_TYPE,CLASSIFICATION_TYPE,NORAD_CAT_ID,ELEMENT_SET_NO,REV_AT_EPOCH,BSTAR,MEAN_MOTION_DOT,MEAN_MOTION_DDOT
STARLINK-30771,2023-166V,2026-05-20T00:47:16.139616,15.30196028,.00010444,53.1606,248.1354,80.3581,279.7538,0,U,58169,999,14410,.54000965E-4,.124E-4,0
STARLINK-30764,2023-166W,2026-05-20T00:42:42.865920,15.30192645,.00013647,53.1639,248.1154,91.1837,268.9320,0,U,58170,999,14410,.95030597E-4,.2456E-4,0
STARLINK-30752,2023-166X,2026-05-19T13:39:46.904832,15.30186383,.00015233,53.1608,250.2089,90.2684,269.8491,0,U,58171,999,14403,.41607417E-4,.873E-5,0
COSMOS 2571,2023-165C,2026-05-20T04:06:14.960736,13.97332391,.0015778,67.1520,355.5357,330.9578,29.0628,0,U,58172,999,13044,.11363E-4,-.59E-6,0
STARLINK-30753,2023-167A,2026-05-20T06:51:53.223552,15.27577758,.00013937,43.0033,99.1740,274.5256,85.5437,0,U,58175,999,14193,.60186674E-4,.1394E-4,0
STARLINK-30824,2023-167B,2026-05-20T05:23:16.615968,15.27580476,.00015206,43.0031,99.5697,271.2776,88.7901,0,U,58176,999,14192,.67800163E-4,.1604E-4,0
STARLINK-30791,2023-167C,2026-05-20T04:40:43.190976,15.27577450,.00009791,43.0039,99.3369,266.9568,93.1171,0,U,58177,999,14192,.55769322E-4,.1273E-4,0
STARLINK-30810,2023-167D,2026-05-20T04:22:13.221408,15.27595645,.00011272,43.0024,99.2508,286.5525,73.5203,0,U,58178,999,14192,.11492716E-3,.2903E-4,0
STARLINK-30819,2023-167E,2026-05-20T05:08:28.128480,15.27582279,.00016647,43.0041,99.4844,268.0344,92.0317,0,U,58179,999,14192,.42526423E-4,.908E-5,0
STARLINK-30806,2023-167F,2026-05-20T04:32:59.588448,15.29680225,.00008938,42.9985,99.2902,181.3225,178.7625,0,U,58180,999,14192,.12644964E-2,.37032E-3,0
STARLINK-30821,2023-167G,2026-05-20T06:25:58.874592,15.27576224,.00009113,43.0044,99.0252,270.3433,89.7314,0,U,58181,999,14192,.54216557E-4,.123E-4,0
STARLINK-30778,2023-167H,2026-05-20T04:55:31.198944,15.27577220,.00012833,43.0042,99.4123,276.2947,83.7758,0,U,58182,999,14192,.41556955E-4,.881E-5,0
STARLINK-30809,2023-167J,2026-05-20T05:45:28.869408,15.27577587,.00013034,43.0026,99.6744,262.2041,97.8663,0,U,58183,999,14192,.38231621E-4,.79E-5,0
STARLINK-30801,2023-167K,2026-05-20T04:16:52.506336,15.27579896,.00012011,43.0038,100.0702,267.3517,92.7198,0,U,58184,999,14191,.17226522E-4,.212E-5,0
STARLINK-30793,2023-167L,2026-05-19T14:59:13.121088,15.27572617,.0002181,43.0055,102.7893,266.3236,93.7366,0,U,58185,999,14183,.32448864E-4,.63E-5,0
STARLINK-30755,2023-167M,2026-05-20T06:13:01.621920,15.27574836,.00010781,43.0028,98.9616,273.5648,86.5080,0,U,58186,999,14193,.58437367E-4,.1346E-4,0
STARLINK-30760,2023-167N,2026-05-20T06:46:20.696736,15.27584636,.00015119,43.0058,99.1263,299.9501,60.1201,0,U,58187,999,14193,.11169141E-3,.2813E-4,0
STARLINK-30826,2023-167P,2026-05-19T22:48:08.753184,15.27578182,.00014579,43.0036,100.9376,267.9141,92.1543,0,U,58188,999,14188,.87550371E-4,.2148E-4,0
STARLINK-30796,2023-167Q,2026-05-20T04:33:19.190880,15.27579308,.00009843,43.0030,99.2976,261.6973,98.3768,0,U,58189,999,14192,.38263384E-4,.791E-5,0
STARLINK-30820,2023-167R,2026-05-20T06:01:53.118336,15.27595529,.00008013,43.0029,98.8982,277.1674,82.9086,0,U,58190,999,14193,.13659798E-3,.35E-4,0
STARLINK-30785,2023-167S,2026-05-20T05:21:26.059392,15.27592394,.00012194,43.0031,99.5466,268.0074,92.0638,0,U,58191,999,14192,.69718436E-4,.1658E-4,0
STARLINK-30807,2023-167T,2026-05-20T05:10:19.409952,15.27586747,.00016325,43.0032,99.4900,272.5970,87.4695,0,U,58192,999,14192,.23131077E-3,.611E-4,0
STARLINK-30822,2023-167U,2026-05-20T04:02:04.221888,15.27579317,.00011634,43.0027,99.9917,271.3048,88.7671,0,U,58193,999,14191,.49666692E-4,.1105E-4,0
STARLINK-30830,2023-167V,2026-05-20T06:03:43.984224,15.27594046,.00014546,43.0052,98.8884,267.6836,92.3850,0,U,58194,999,14193,.11661965E-3,.295E-4,0
STARLINK-30827,2023-167W,2026-05-20T05:58:13.006560,15.27580106,.00016758,43.0027,98.8817,263.3594,96.7067,0,U,58195,999,14193,-.1144645E-3,-.3411E-4,0
STARLINK-30798,2023-167X,2026-05-20T07:01:08.026464,15.27579796,.00012937,43.0024,99.2058,263.3002,96.7702,0,U,58196,999,14193,.44812171E-4,.971E-5,0
STARLINK-30762,2023-167Y,2026-05-20T04:07:38.818848,15.27575881,.00013602,43.0018,100.0177,254.7345,105.3357,0,U,58197,999,14191,.96093727E-4,.2383E-4,0
TIANHUI 5A,2023-168A,2026-05-19T11:44:19.771872,14.87581613,.0001609,97.8205,147.2693,93.6025,266.5376,0,U,58199,999,13833,.29153277E-4,.211E-5,0
TIANHUI 5B,2023-168C,2026-05-19T11:44:19.896288,14.87581354,.00020296,97.8209,147.2738,95.3774,264.7674,0,U,58201,999,13833,.27901758E-4,.199E-5,0
TJS-10,2023-169A,2026-05-19T16:28:13.143936,1.00273703,.0003415,2.4727,80.8091,106.9569,29.0794,0,U,58204,999,925,0,-.252E-5,0
